[{"OBJECT_NAME":"OPTICUBE 04","OBJECT_ID":"2016-067D","EPOCH":"2026-03-09T12:14:28.758048","MEAN_MOTION":15.09188378,"ECCENTRICITY":0.00170901,"INCLINATION":98.0811,"RA_OF_ASC_NODE":275.5525,"ARG_OF_PERICENTER":94.6311,"MEAN_ANOMALY":265.6869,"EPHEMERIS_TYPE":0,"CLASSIFICATION_TYPE":"U","NORAD_CAT_ID":41851,"ELEMENT_SET_NO":999,"REV_AT_EPOCH":51013,"BSTAR":0.00024566739,"MEAN_MOTION_DOT":3.845e-5,"MEAN_MOTION_DDOT":0},{"OBJECT_NAME":"STARLINK-5059","OBJECT_ID":"2022-119AC","EPOCH":"2026-03-09T21:53:16.468224","MEAN_MOTION":15.08837889,"ECCENTRICITY":0.00012105,"INCLINATION":53.2178,"RA_OF_ASC_NODE":312.7628,"ARG_OF_PERICENTER":74.6872,"MEAN_ANOMALY":285.4254,"EPHEMERIS_TYPE":0,"CLASSIFICATION_TYPE":"U","NORAD_CAT_ID":53912,"ELEMENT_SET_NO":999,"REV_AT_EPOCH":19186,"BSTAR":-0.00028724855,"MEAN_MOTION_DOT":-4.856e-5,"MEAN_MOTION_DDOT":0}]
